{
  "type": "FeatureCollection",
  "features": [
    {
      "type": "Feature",
      "properties": {
        "norad_id": 66512,
        "name": "STARLINK-35366",
        "group": "last-30-days",
        "lat": -42.97484236111548,
        "lon": 93.7805408751257,
        "alt_km": 347.0158235951403,
        "timestamp": "2025-12-02T15:49:05.949181+00:00",
        "meta_object_name": "STARLINK-35366",
        "meta_object_id": "2025-263AD",
        "meta_epoch": "2025-12-02T06:00:02.999808",
        "meta_mean_motion": 15.75153014,
        "meta_eccentricity": 0.00017368,
        "meta_inclination": 42.9986,
        "meta_ra_of_asc_node": 187.0771,
        "meta_arg_of_pericenter": 260.0353,
        "meta_mean_anomaly": 207.0928,
        "meta_ephemeris_type": 0,
        "meta_classification_type": "U",
        "meta_norad_cat_id": 66512,
        "meta_element_set_no": 999,
        "meta_rev_at_epoch": 395,
        "meta_bstar": -0.0018648709,
        "meta_mean_motion_dot": -0.00279078,
        "meta_mean_motion_ddot": 0,
        "tle_line1": "1 66512U 25263AD  25336.25003472 -.00279078  00000+0 -18649-2 0  9994",
        "tle_line2": "2 66512  42.9986 187.0771 0001736 260.0353 207.0928 15.75153014  3954"
      },
      "geometry": {
        "type": "Point",
        "coordinates": [
          93.7805408751257,
          -42.97484236111548
        ]
      }
    },
    {
      "type": "Feature",
      "properties": {
        "norad_id": 66513,
        "name": "STARLINK-35692",
        "group": "last-30-days",
        "lat": -42.651146160879264,
        "lon": 85.96470370248112,
        "alt_km": 347.1227413195884,
        "timestamp": "2025-12-02T15:49:05.949193+00:00",
        "meta_object_name": "STARLINK-35692",
        "meta_object_id": "2025-263AE",
        "meta_epoch": "2025-12-02T06:00:02.999808",
        "meta_mean_motion": 15.75141923,
        "meta_eccentricity": 0.0001676,
        "meta_inclination": 42.9984,
        "meta_ra_of_asc_node": 187.092,
        "meta_arg_of_pericenter": 284.8679,
        "meta_mean_anomaly": 176.5132,
        "meta_ephemeris_type": 0,
        "meta_classification_type": "U",
        "meta_norad_cat_id": 66513,
        "meta_element_set_no": 999,
        "meta_rev_at_epoch": 395,
        "meta_bstar": -0.0017241839,
        "meta_mean_motion_dot": -0.00258551,
        "meta_mean_motion_ddot": 0,
        "tle_line1": "1 66513U 25263AE  25336.25003472 -.00258551  00000+0 -17242-2 0  9996",
        "tle_line2": "2 66513  42.9984 187.0920 0001676 284.8679 176.5132 15.75141923  3950"
      },
      "geometry": {
        "type": "Point",
        "coordinates": [
          85.96470370248112,
          -42.651146160879264
        ]
      }
    },
    {
      "type": "Feature",
      "properties": {
        "norad_id": 66514,
        "name": "SENTINEL-6B",
        "group": "last-30-days",
        "lat": -41.2987888233991,
        "lon": 160.4862871464157,
        "alt_km": 1317.2874268473815,
        "timestamp": "2025-12-02T15:49:05.949203+00:00",
        "meta_object_name": "SENTINEL-6B",
        "meta_object_id": "2025-264A",
        "meta_epoch": "2025-12-02T01:07:30.457056",
        "meta_mean_motion": 12.85877319,
        "meta_eccentricity": 0.00115275,
        "meta_inclination": 66.0388,
        "meta_ra_of_asc_node": 184.7629,
        "meta_arg_of_pericenter": 268.8495,
        "meta_mean_anomaly": 91.1202,
        "meta_ephemeris_type": 0,
        "meta_classification_type": "U",
        "meta_norad_cat_id": 66514,
        "meta_element_set_no": 999,
        "meta_rev_at_epoch": 191,
        "meta_bstar": 0.0003263787,
        "meta_mean_motion_dot": 1.9e-07,
        "meta_mean_motion_ddot": 0,
        "tle_line1": "1 66514U 25264A   25336.04688029  .00000019  00000+0  32638-3 0  9991",
        "tle_line2": "2 66514  66.0388 184.7629 0011527 268.8495  91.1202 12.85877319  1917"
      },
      "geometry": {
        "type": "Point",
        "coordinates": [
          160.4862871464157,
          -41.2987888233991
        ]
      }
    },
    {
      "type": "Feature",
      "properties": {
        "norad_id": 66516,
        "name": "STARLINK-35924",
        "group": "last-30-days",
        "lat": -40.83880353910296,
        "lon": 45.86816382261974,
        "alt_km": 346.8385081845472,
        "timestamp": "2025-12-02T15:49:05.949230+00:00",
        "meta_object_name": "STARLINK-35924",
        "meta_object_id": "2025-265A",
        "meta_epoch": "2025-12-02T06:00:02.999808",
        "meta_mean_motion": 15.75030012,
        "meta_eccentricity": 0.00014984,
        "meta_inclination": 42.9992,
        "meta_ra_of_asc_node": 116.4166,
        "meta_arg_of_pericenter": 263.1746,
        "meta_mean_anomaly": 220.9901,
        "meta_ephemeris_type": 0,
        "meta_classification_type": "U",
        "meta_norad_cat_id": 66516,
        "meta_element_set_no": 999,
        "meta_rev_at_epoch": 328,
        "meta_bstar": 7.8634593e-05,
        "meta_mean_motion_dot": 0.00011613,
        "meta_mean_motion_ddot": 0,
        "tle_line1": "1 66516U 25265A   25336.25003472  .00011613  00000+0  78635-4 0  9990",
        "tle_line2": "2 66516  42.9992 116.4166 0001498 263.1746 220.9901 15.75030012  3287"
      },
      "geometry": {
        "type": "Point",
        "coordinates": [
          45.86816382261974,
          -40.83880353910296
        ]
      }
    },
    {
      "type": "Feature",
      "properties": {
        "norad_id": 66517,
        "name": "STARLINK-35937",
        "group": "last-30-days",
        "lat": -40.326267085696884,
        "lon": 48.29107808738222,
        "alt_km": 346.80233915917415,
        "timestamp": "2025-12-02T15:49:05.949244+00:00",
        "meta_object_name": "STARLINK-35937",
        "meta_object_id": "2025-265B",
        "meta_epoch": "2025-12-02T06:00:02.999808",
        "meta_mean_motion": 15.75027228,
        "meta_eccentricity": 0.00016153,
        "meta_inclination": 42.9994,
        "meta_ra_of_asc_node": 116.4124,
        "meta_arg_of_pericenter": 261.4956,
        "meta_mean_anomaly": 224.5948,
        "meta_ephemeris_type": 0,
        "meta_classification_type": "U",
        "meta_norad_cat_id": 66517,
        "meta_element_set_no": 999,
        "meta_rev_at_epoch": 330,
        "meta_bstar": 2.770025e-06,
        "meta_mean_motion_dot": -5.2e-07,
        "meta_mean_motion_ddot": 0,
        "tle_line1": "1 66517U 25265B   25336.25003472 -.00000052  00000+0  27700-5 0  9995",
        "tle_line2": "2 66517  42.9994 116.4124 0001615 261.4956 224.5948 15.75027228  3308"
      },
      "geometry": {
        "type": "Point",
        "coordinates": [
          48.29107808738222,
          -40.326267085696884
        ]
      }
    },
    {
      "type": "Feature",
      "properties": {
        "norad_id": 66518,
        "name": "STARLINK-35962",
        "group": "last-30-days",
        "lat": -39.758812635917955,
        "lon": 50.6927772911118,
        "alt_km": 346.552393660555,
        "timestamp": "2025-12-02T15:49:05.949255+00:00",
        "meta_object_name": "STARLINK-35962",
        "meta_object_id": "2025-265C",
        "meta_epoch": "2025-12-02T06:00:02.999808",
        "meta_mean_motion": 15.75114171,
        "meta_eccentricity": 0.00020496,
        "meta_inclination": 42.9991,
        "meta_ra_of_asc_node": 116.4074,
        "meta_arg_of_pericenter": 262.6057,
        "meta_mean_anomaly": 225.3612,
        "meta_ephemeris_type": 0,
        "meta_classification_type": "U",
        "meta_norad_cat_id": 66518,
        "meta_element_set_no": 999,
        "meta_rev_at_epoch": 330,
        "meta_bstar": -0.00082347319,
        "meta_mean_motion_dot": -0.00125529,
        "meta_mean_motion_ddot": 0,
        "tle_line1": "1 66518U 25265C   25336.25003472 -.00125529  00000+0 -82347-3 0  9990",
        "tle_line2": "2 66518  42.9991 116.4074 0002049 262.6057 225.3612 15.75114171  3308"
      },
      "geometry": {
        "type": "Point",
        "coordinates": [
          50.6927772911118,
          -39.758812635917955
        ]
      }
    },
    {
      "type": "Feature",
      "properties": {
        "norad_id": 66519,
        "name": "STARLINK-35931",
        "group": "last-30-days",
        "lat": -39.15065667035323,
        "lon": 53.025854801564115,
        "alt_km": 346.6012211841744,
        "timestamp": "2025-12-02T15:49:05.949266+00:00",
        "meta_object_name": "STARLINK-35931",
        "meta_object_id": "2025-265D",
        "meta_epoch": "2025-12-02T06:00:02.999808",
        "meta_mean_motion": 15.75034996,
        "meta_eccentricity": 0.00019044,
        "meta_inclination": 42.9994,
        "meta_ra_of_asc_node": 116.4023,
        "meta_arg_of_pericenter": 261.4042,
        "meta_mean_anomaly": 228.5139,
        "meta_ephemeris_type": 0,
        "meta_classification_type": "U",
        "meta_norad_cat_id": 66519,
        "meta_element_set_no": 999,
        "meta_rev_at_epoch": 330,
        "meta_bstar": -3.2652242e-05,
        "meta_mean_motion_dot": -5.49e-05,
        "meta_mean_motion_ddot": 0,
        "tle_line1": "1 66519U 25265D   25336.25003472 -.00005490  00000+0 -32652-4 0  9990",
        "tle_line2": "2 66519  42.9994 116.4023 0001904 261.4042 228.5139 15.75034996  3301"
      },
      "geometry": {
        "type": "Point",
        "coordinates": [
          53.025854801564115,
          -39.15065667035323
        ]
      }
    }
  ]
}